[{"OBJECT_NAME":"OBJECT V","OBJECT_ID":"2023-085V","EPOCH":"2026-03-09T21:44:00.165408","MEAN_MOTION":15.30745852,"ECCENTRICITY":0.00069081,"INCLINATION":97.4843,"RA_OF_ASC_NODE":179.3833,"ARG_OF_PERICENTER":71.0503,"MEAN_ANOMALY":289.1485,"EPHEMERIS_TYPE":0,"CLASSIFICATION_TYPE":"U","NORAD_CAT_ID":57023,"ELEMENT_SET_NO":999,"REV_AT_EPOCH":15149,"BSTAR":0.00067780507,"MEAN_MOTION_DOT":0.00020109,"MEAN_MOTION_DDOT":0},{"OBJECT_NAME":"STARLINK-34427","OBJECT_ID":"2025-133AC","EPOCH":"2026-03-09T10:42:55.335456","MEAN_MOTION":15.30190262,"ECCENTRICITY":0.00012115,"INCLINATION":53.1593,"RA_OF_ASC_NODE":117.7455,"ARG_OF_PERICENTER":91.1588,"MEAN_ANOMALY":268.9552,"EPHEMERIS_TYPE":0,"CLASSIFICATION_TYPE":"U","NORAD_CAT_ID":64498,"ELEMENT_SET_NO":999,"REV_AT_EPOCH":4115,"BSTAR":0.00048667063,"MEAN_MOTION_DOT":0.00014078,"MEAN_MOTION_DDOT":0}]
